#aV2013  4 22  0  0  0.00000000     288 DD+AD WGS84 FIT  NGA
## 1737  86400.00000000   300.00000000 56404 0.0000000000000
+   30     1  2  3  4  5  6  7  8  9 10 11 12 13 14 15 16 17
+         18 19 20 21 22 23 24 25 26 28 29 31 32  0  0  0  0
+          0  0  0  0  0  0  0  0  0  0  0  0  0  0  0  0  0
+          0  0  0  0  0  0  0  0  0  0  0  0  0  0  0  0  0
+          0  0  0  0  0  0  0  0  0  0  0  0  0  0  0  0  0
++         2  2  2  2  2  2  2  2  2  2  2  2  2  2  2  2  2
++         2  2  2  2  2  2  2  2  2  2  2  2  2  2  2  0  0
++         0  0  0  0  0  0  0  0  0  0  0  0  0  0  0  0  0
++         0  0  0  0  0  0  0  0  0  0  0  0  0  0  0  0  0
++         0  0  0  0  0  0  0  0  0  0  0  0  0  0  0  0  0
%c cc cc ccc ccc cccc cccc cccc cccc ccccc ccccc ccccc ccccc
%c cc cc ccc ccc cccc cccc cccc cccc ccccc ccccc ccccc ccccc
%f  0.0000000  0.000000000  0.00000000000  0.000000000000000
%f  0.0000000  0.000000000  0.00000000000  0.000000000000000
%i    0    0    0    0      0      0      0      0         0
%i    0    0    0    0      0      0      0      0         0
/*      NGA, ST. LOUIS,MO.                                  
/*   EPHEMERIS COMPUTED FROM  1 DAYS OF DATA
/*   EPOCHA SMOOTHER  
/* CCCCCCCCCCCCCCCCCCCCCCCCCCCCCCCCCCCCCCCCCCCCCCCCCCCCCCCCC
*  2013  4 22 10  0  0.00000000                                                 
P  1     41.668408  15814.903206 -21343.902365     18.603829                    
V  1 -25744.903233   8412.908091   6268.302825      0.036581                    
P  2  20918.519499 -13979.264014   7849.884275    428.531533                    
V  2  10526.586149    -43.827074 -29383.903436      0.018933                    
P  3  -9133.549528  21964.654884  11070.488754    197.311906                    
V  3  -2793.692512 -15094.645882  26656.543840      0.049205                    
P  4  25748.395599  -6112.135763  -3925.499131    197.486129                    
V  4  -3273.496158   4581.456732 -30532.930607      0.107898                    
P  5  10090.043209 -11699.821869  21575.032710   -392.424716                    
V  5  20966.792069  17804.848749    -11.223007     -0.011870                    
P  6 -13515.821104  16550.234033  15630.494521    263.346012                    
V  6   -143.673017 -20059.223494  21596.684991     -0.158210                    
P  7  16191.828310   8500.015378  19408.675102    205.507080                    
V  7 -22891.546635   8552.908895  15097.693811      0.042718                    
P  8  23609.078592   2820.409763  12545.874248      5.726063                    
V  8 -14882.133773   4369.247895  26680.214248      0.001974                    
P  9  23780.391230 -11348.175075  -4083.600601    235.796511                    
V  9   4870.434888    329.531721  31679.662968      0.025847                    
P 10  21366.643349   4270.903106  15173.290866    -77.416822                    
V 10  13263.631917  14683.582613 -21971.302879     -0.013092                    
P 11  -4977.508092  20359.528233 -16602.580120   -374.769099                    
V 11 -18499.976843   9714.444799  18214.127339     -0.036381                    
P 12  -6677.733503 -20363.430015 -15857.226311    129.749065                    
V 12  15621.506991  12472.176342 -22433.715246      0.020893                    
P 13   6057.502063  19427.964859  16857.918888    126.230041                    
V 13  -7523.182815  20391.027043 -20739.210238     -0.035355                    
P 14 -15102.702303   -305.602409 -21638.875579    221.077099                    
V 14   6664.421732 -27111.963116  -4371.521548     -0.000353                    
P 15   3599.622520 -26165.007428   -720.890401   -116.229954                    
V 15   3759.069187   -307.242122  31459.171152     -0.014450                    
P 16 -10880.848583   9907.708539  22101.382702   -252.455379                    
V 16 -20402.318386 -19213.963765  -1099.110371      0.001518                    
P 17  15306.985109   -222.494698 -21464.177716     27.176578                    
V 17  -5690.653756  27203.585308  -4524.632012     -0.039740                    
P 18 -21354.631202 -15845.387624  -2518.455884    250.080958                    
V 18   -462.500558  -5077.131661  30569.898814      0.018225                    
P 19  -8443.651443  24855.991358   1931.270161   -366.901394                    
V 19  -2318.349038  -3343.797149  31934.499997     -0.031301                    
P 20  10273.637934  20613.408355 -13466.684723     94.232868                    
V 20 -15120.120038  -8012.717761 -24041.027196      0.019198                    
P 21 -19906.568998  -6536.956498  17182.631673   -293.341219                    
V 21  18875.224300  -8548.453344  18718.328431     -0.021438                    
P 22 -22361.142275  -6840.809930 -12534.019560    165.209814                    
V 22 -10268.412885 -12974.672440  24875.641601      0.013767                    
P 23   1737.919820  24649.026734   9255.737314     92.820890                    
V 23  -5238.269107  10980.314211 -28839.714338     -0.036183                    
P 24   4068.067834 -16620.763905 -20314.288730     -4.947066                    
V 24  24608.783754  -7775.635268  11335.232433     -0.007155                    
P 25 -16265.184858 -19910.782960  -6913.206950     89.897412                    
V 25   8071.947671   3902.623417 -30331.081841      0.038681                    
P 26  12735.848934 -20606.601521   9839.162197    -17.105685                    
V 26  -1374.764249  13671.014894  28893.552411      0.151092                    
P 28  21595.759730  11724.946571  -9720.373029    252.101731                    
V 28   8147.246888  10445.329304  28805.928336      0.032645                    
P 29  -7044.389171 -19682.347057  16466.523109    428.660161                    
V 29   6464.173647 -19819.479257 -20947.561126      0.034476                    
P 31 -25640.380488   7324.330630  -1431.636240    311.616490                    
V 31   1304.851934  -2483.354484 -31932.436897      0.014860                    
P 32   1299.954471  19639.064515 -17931.729979   -551.867157                    
V 32 -17105.704411 -15282.409152 -17327.189736     -0.023124                    
EOF
